[{"OBJECT_NAME":"STARLINK-30073","OBJECT_ID":"2023-079T","EPOCH":"2026-03-09T22:00:01.999584","MEAN_MOTION":15.27575359,"ECCENTRICITY":0.00020534,"INCLINATION":43.0005,"RA_OF_ASC_NODE":291.0924,"ARG_OF_PERICENTER":288.9142,"MEAN_ANOMALY":240.4544,"EPHEMERIS_TYPE":0,"CLASSIFICATION_TYPE":"U","NORAD_CAT_ID":56840,"ELEMENT_SET_NO":999,"REV_AT_EPOCH":574,"BSTAR":0.00066101027,"MEAN_MOTION_DOT":0.0001797,"MEAN_MOTION_DDOT":0},{"OBJECT_NAME":"STARLINK-30998","OBJECT_ID":"2023-191F","EPOCH":"2026-03-09T10:56:11.755104","MEAN_MOTION":15.26777394,"ECCENTRICITY":0.00010836,"INCLINATION":43.0003,"RA_OF_ASC_NODE":104.9154,"ARG_OF_PERICENTER":269.465,"MEAN_ANOMALY":90.6078,"EPHEMERIS_TYPE":0,"CLASSIFICATION_TYPE":"U","NORAD_CAT_ID":58513,"ELEMENT_SET_NO":999,"REV_AT_EPOCH":12546,"BSTAR":0.00031234295,"MEAN_MOTION_DOT":8.137e-5,"MEAN_MOTION_DDOT":0}]
